OBJECT_NAME,OBJECT_ID,EPOCH,MEAN_MOTION,ECCENTRICITY,INCLINATION,RA_OF_ASC_NODE,ARG_OF_PERICENTER,MEAN_ANOMALY,EPHEMERIS_TYPE,CLASSIFICATION_TYPE,NORAD_CAT_ID,ELEMENT_SET_NO,REV_AT_EPOCH,BSTAR,MEAN_MOTION_DOT,MEAN_MOTION_DDOT
STARLINK-11297 [DTC],2024-164L,2026-06-16T07:06:41.653152,15.69713532,.0001106,53.1593,185.3605,77.8917,282.2224,0,U,61060,999,10090,.23104E-5,-.309E-5,0
STARLINK-11233 [DTC],2024-164M,2026-06-16T08:31:19.094304,15.69705391,.00011637,53.1595,185.0119,92.0120,268.1031,0,U,61061,999,10091,.3881651E-5,-.118E-5,0
STARLINK-11236 [DTC],2024-164N,2026-06-16T08:24:15.120000,15.69706915,.00012682,53.1597,184.9789,80.2883,279.8278,0,U,61062,999,10091,.1862445E-5,-.363E-5,0
STARLINK-32350,2024-164P,2026-06-16T06:05:25.306368,15.31705653,.0001414,53.1623,352.9129,82.3689,277.7473,0,U,61063,999,9857,-.60177E-5,-.552E-5,0
STARLINK-32378,2024-164Q,2026-06-15T19:14:26.133504,15.31692110,.00012589,53.1617,355.0682,79.6163,280.4980,0,U,61064,999,9850,.356472E-5,-.255E-5,0
STARLINK-32321,2024-164R,2026-06-15T20:14:09.534624,15.30188500,.00010007,53.1620,355.3269,81.7963,278.3151,0,U,61065,999,9850,-.1842772E-5,-.413E-5,0
STARLINK-32381,2024-164S,2026-06-16T05:53:40.734240,15.30179853,.0000883,53.1607,353.5693,75.1870,284.9229,0,U,61066,999,9856,.17516E-3,.4829E-4,0
STARLINK-32385,2024-164U,2026-06-15T19:27:52.261056,15.31693616,.00012292,53.1618,355.1291,90.8994,269.2148,0,U,61068,999,9850,.11803663E-3,.3299E-4,0
STARLINK-32380,2024-164V,2026-06-15T17:47:12.268608,15.31690628,.00012659,53.1614,355.4055,97.9077,262.2068,0,U,61069,999,9849,.25915084E-4,.439E-5,0
STARLINK-32375,2024-164W,2026-06-16T05:43:02.264160,15.30188721,.0001193,53.1617,353.5190,88.4551,271.6586,0,U,61070,999,9856,.45539E-5,-.224E-5,0
CHAMRAN-1,2024-165B,2026-06-16T11:27:53.330112,15.11102820,.005349,64.0765,44.4991,306.6754,52.9452,0,U,61072,999,9655,.18798E-3,.3065E-4,0
2024-166B,2024-166B,2026-06-16T15:38:18.949344,15.75382096,.0000335,96.6794,58.8756,279.4304,80.6925,0,U,61180,999,10065,.13694E-3,.20529E-3,0
GSAT0232 (GALILEO 32),2024-167A,2026-06-14T10:07:45.895008,1.70474154,.00062682,55.1857,221.3898,227.1556,204.5150,0,U,61182,999,1083,0,.6E-6,0
GSAT0226 (GALILEO 31),2024-167B,2026-06-16T11:57:56.081664,1.70474202,.00029338,55.1839,221.3398,227.4151,129.9958,0,U,61183,999,1083,0,.46E-6,0
BEIDOU-3 M25,2024-168B,2026-06-16T09:08:00.746016,1.86229791,.00029714,54.4741,302.2702,300.7065,56.4817,0,U,61186,999,1176,0,-.71E-6,0
BEIDOU-3 M27,2024-168C,2026-06-15T15:34:51.865824,1.86229845,.00015794,54.4702,302.2787,51.2024,310.6804,0,U,61187,999,923,0,-.7E-6,0
JILIN-01 KUANFU 02B 1,2024-169A,2026-06-16T14:03:56.136960,15.08879708,.00038656,97.5581,257.1125,66.7826,293.3810,0,U,61189,999,9573,.21531495E-3,.333E-4,0
JILIN-01 KUANFU 02B 2,2024-169B,2026-06-16T13:33:34.006752,15.08842224,.00069324,97.5573,256.4805,31.2586,328.9053,0,U,61190,999,9573,.17632782E-3,.2713E-4,0
JILIN-01 KUANFU 02B 3,2024-169C,2026-06-16T13:47:30.222240,15.08886174,.00122851,97.5570,256.9223,314.3638,45.6583,0,U,61191,999,9573,.17689901E-3,.2728E-4,0
JILIN-01 KUANFU 02B 4,2024-169D,2026-06-16T14:37:23.245248,15.08853010,.00119591,97.5530,256.4969,266.2972,93.6889,0,U,61192,999,9574,.19851441E-3,.3067E-4,0
JILIN-01 KUANFU 02B 5,2024-169E,2026-06-16T14:19:46.992288,15.08899542,.00118362,97.5580,257.2624,293.9450,66.0539,0,U,61193,999,9574,.22287176E-3,.3455E-4,0
JILIN-01 KUANFU 02B 6,2024-169F,2026-06-16T13:17:17.380896,15.08861335,.00155224,97.5558,257.1212,328.2817,31.7475,0,U,61194,999,9574,.15644555E-3,.2406E-4,0
TIANQI-29,2024-170A,2026-06-16T09:44:02.928480,13.99144566,.00044532,44.8553,140.2037,81.9705,278.1631,0,U,61195,999,8875,.369065E-4,-.74E-6,0
TIANQI-30,2024-170B,2026-06-16T10:10:03.541440,13.99143514,.00062114,44.8567,140.3815,92.4848,267.6694,0,U,61196,999,8894,.3193746E-4,-.81E-6,0
TIANQI-31,2024-170C,2026-06-16T08:53:59.832960,13.99167469,.00065145,44.8603,140.9962,64.0280,296.1221,0,U,61197,999,8883,.40817884E-4,-.68E-6,0
TIANQI-32,2024-170D,2026-06-16T09:17:07.378080,13.99159790,.00067208,44.8589,141.0197,61.4250,298.7257,0,U,61198,999,8442,.41458134E-4,-.67E-6,0
STARLINK-11209 [DTC],2024-171A,2026-06-15T23:30:02.370240,15.69706676,.0000879,53.1592,51.9272,97.2287,262.8831,0,U,61200,999,10074,.14151E-4,.1126E-4,0
STARLINK-11257 [DTC],2024-171B,2026-06-15T23:22:58.452960,15.69711857,.0000845,53.1585,51.8874,138.5068,221.6014,0,U,61201,999,9983,-.29328E-5,-.943E-5,0
STARLINK-11309 [DTC],2024-171C,2026-06-15T23:15:54.628128,15.69704303,.0001115,53.1592,51.8532,45.4068,314.7041,0,U,61202,999,9983,.17391E-4,.1518E-4,0
STARLINK-11292 [DTC],2024-171D,2026-06-15T23:08:50.958816,15.69702042,.0001091,53.1607,51.8244,92.8231,267.2912,0,U,61203,999,9983,.21938E-4,.2069E-4,0
STARLINK-11302 [DTC],2024-171E,2026-06-16T09:43:34.252320,15.69708314,.00008742,53.1594,49.5929,97.2168,262.8950,0,U,61204,999,9990,.488367E-5,.3E-7,0
STARLINK-11277 [DTC],2024-171F,2026-06-15T22:47:39.313248,15.69708346,.000089,53.1593,51.7224,71.4961,288.6153,0,U,61205,999,9983,.59685E-5,.135E-5,0
STARLINK-11279 [DTC],2024-171G,2026-06-16T09:22:22.642176,15.69708858,.00012133,53.1611,49.4938,79.6596,280.4559,0,U,61206,999,9990,.5693456E-5,.101E-5,0
STARLINK-11091 [DTC],2024-171H,2026-06-16T09:36:30.685824,15.69705362,.00008852,53.1586,49.5619,81.1504,278.9614,0,U,61207,999,9990,-.42636E-5,-.1105E-4,0
STARLINK-11291 [DTC],2024-171J,2026-06-15T22:33:31.558176,15.69712874,.0000934,53.1600,51.6564,87.2115,272.9010,0,U,61208,999,9983,-.20503E-5,-.837E-5,0
STARLINK-11304 [DTC],2024-171K,2026-06-16T09:08:14.172576,15.69721758,.00009384,53.1585,49.4238,60.7729,299.3382,0,U,61209,999,10081,.17140299E-4,.1489E-4,0
STARLINK-11307 [DTC],2024-171L,2026-06-15T22:19:32.806848,15.69711576,.0000927,53.1596,52.3273,96.1505,263.9618,0,U,61210,999,9982,-.96848E-6,-.706E-5,0
STARLINK-11298 [DTC],2024-171M,2026-06-16T08:54:16.457184,15.69697314,.00008017,53.1594,50.0970,85.2084,274.9025,0,U,61211,999,9989,.25260102E-4,.2471E-4,0
STARLINK-11310 [DTC],2024-171N,2026-06-15T23:37:06.335904,15.69713465,.00011004,53.1602,51.9485,85.7453,274.3691,0,U,61212,999,9983,-.3874334E-5,-.1058E-4,0
STARLINK-32386,2024-171P,2026-06-16T10:13:44.654592,15.34389673,.00013032,53.1604,222.5401,86.4618,273.6534,0,U,61213,999,9750,.25478058E-4,.484E-5,0
STARLINK-32392,2024-171Q,2026-06-16T10:28:52.334976,15.34402935,.00018186,53.1615,222.6084,116.7829,243.3360,0,U,61214,999,9750,.79181315E-4,.23E-4,0
STARLINK-32436,2024-171R,2026-06-16T09:37:30.993024,15.34388898,.00011899,53.1590,223.0901,91.8926,268.2213,0,U,61215,999,9749,.48353721E-4,.1257E-4,0
STARLINK-32425,2024-171S,2026-06-16T14:49:40.786752,15.31135665,.00011974,53.1590,223.0225,63.9530,296.1595,0,U,61216,999,9751,.31735556E-2,.97674E-3,0
STARLINK-32342,2024-171T,2026-06-16T11:27:33.790752,15.30765974,.00016101,53.1604,223.5648,10.2957,349.8076,0,U,61217,999,9840,.25899678E-2,.78531E-3,0
STARLINK-32423,2024-171U,2026-06-16T09:57:16.871904,15.30193246,.00012719,53.1594,223.8828,87.0409,273.0738,0,U,61218,999,9839,.4351572E-4,.93E-5,0
STARLINK-32248,2024-171V,2026-06-16T11:21:48.123360,15.31695533,.00011615,53.1598,223.5375,87.4421,272.6713,0,U,61219,999,9840,.2305586E-5,-.294E-5,0
KINEIS-3C,2024-172A,2026-06-16T12:41:37.904352,14.72275291,.00025318,98.0432,257.4344,127.4222,232.7216,0,U,61220,999,9297,.26793867E-3,.1643E-4,0
KINEIS-3D,2024-172B,2026-06-16T12:31:58.189728,14.72277341,.00024183,98.0431,257.4380,124.1158,236.0279,0,U,61221,999,9325,.26863467E-3,.1647E-4,0
KINEIS-3E,2024-172C,2026-06-15T11:38:47.065344,14.72254034,.00029302,98.0386,256.3965,105.0131,255.1401,0,U,61222,999,9310,.2670158E-3,.1636E-4,0
KINEIS-3A,2024-172D,2026-06-16T05:12:20.458944,14.72313020,.0003335,98.0424,257.2182,97.4211,262.7375,0,U,61223,999,9263,.27283E-3,.1675E-4,0
KINEIS-3B,2024-172E,2026-06-16T12:56:25.365408,14.72290649,.00031606,98.0419,257.5615,84.3356,275.8212,0,U,61224,999,9325,.26318042E-3,.1613E-4,0
2024-173A,2024-173A,2026-06-16T13:56:23.610912,15.71186299,.00064304,97.3396,255.4437,234.4430,125.6234,0,U,61227,999,9697,.90936484E-3,.115997E-2,0
2024-173C,2024-173C,2026-06-16T15:10:46.938144,15.49487684,.00117673,97.3414,250.2640,143.2726,216.9334,0,U,61229,999,9664,.52237033E-3,.28799E-3,0
2024-173D,2024-173D,2026-06-16T15:08:01.932288,15.30041501,.00079704,97.3561,246.8805,252.5390,107.4979,0,U,61230,999,9637,.42695736E-3,.12357E-3,0
2024-173E,2024-173E,2026-06-16T02:35:18.132000,15.19173227,.00016573,97.4121,239.3010,88.4366,271.7059,0,U,61231,999,9559,.72683103E-4,.1461E-4,0
XINGSHIDAI 21 (SCA-2),2024-173F,2026-06-15T22:05:42.546048,15.76997072,.0005421,97.3509,263.7195,151.5064,208.6499,0,U,61232,999,9740,.96192E-3,.158118E-2,0
2024-174A,2024-174A,2026-06-15T18:01:31.793088,15.19173442,.0001105,97.4462,174.5382,90.8395,269.2966,0,U,61238,999,9546,.18206464E-3,.3761E-4,0
2024-174B,2024-174B,2026-06-16T14:11:14.784576,15.10192232,.00192162,97.4477,171.0349,292.9871,66.9331,0,U,61239,999,9530,.14232086E-3,.227E-4,0
2024-174C,2024-174C,2026-06-15T19:37:30.838656,15.18966442,.00019294,97.4429,174.7856,128.3526,231.7882,0,U,61240,999,9547,.17225978E-3,.3533E-4,0
2024-174D,2024-174D,2026-06-16T13:52:06.500928,15.29628449,.00105103,97.4368,179.0181,224.4213,135.6186,0,U,61241,999,9582,.22129544E-3,.6286E-4,0
2024-174E,2024-174E,2026-06-16T14:43:57.872064,15.27539841,.00117293,97.4447,178.5862,230.3891,129.6314,0,U,61242,999,9575,.18695133E-3,.4969E-4,0
STARLINK-11300 [DTC],2024-175A,2026-06-16T14:46:50.575296,15.69703974,.00008657,53.1587,288.6195,79.6983,280.4132,0,U,61243,999,9890,.17317274E-4,.151E-4,0
STARLINK-11276 [DTC],2024-175B,2026-06-16T14:39:45.365472,15.69725202,.00012407,53.1589,288.5863,55.4166,304.6969,0,U,61244,999,9890,.31060129E-4,.3178E-4,0
STARLINK-11280 [DTC],2024-175C,2026-06-16T14:25:37.598304,15.69753428,.00006487,53.1585,288.5289,70.1903,289.9185,0,U,61245,999,9890,-.35861858E-4,-.4938E-4,0
